start=new Date('2023-02-12T00:00:00.000Z').valueOf();
sats=[{"GP_ID":"225186322","DECAY_DATE":null,"SITE":"AFWTR","PERIAPSIS":"356.912","ARG_OF_PERICENTER":"263.4383","RA_OF_ASC_NODE":"58.1344","APOAPSIS":"361.621","TLE_LINE2":"2 55414  69.9993  58.1344 0003495 263.4383 208.0508 15.69871628  1301","OBJECT_ID":"2023-014Z","COUNTRY_CODE":"US","MEAN_MOTION_DOT":"0.00118457","LAUNCH_DATE":"2023-01-31","TIME_SYSTEM":"UTC","MEAN_MOTION_DDOT":"0.0000000000000","EPOCH":"2023-02-11T22:00:00.999936","MEAN_MOTION":"15.69871628","MEAN_ELEMENT_THEORY":"SGP4","OBJECT_NAME":"STARLINK-5620","PERIOD":"91.727","MEAN_ANOMALY":"208.0508","EPHEMERIS_TYPE":"0","RCS_SIZE":"MEDIUM","CENTER_NAME":"EARTH","ELEMENT_SET_NO":"999","TLE_LINE1":"1 55414U 23014Z   23042.91667824  .00118457  00000-0  97517-3 0  9991","CLASSIFICATION_TYPE":"U","NORAD_CAT_ID":"55414","SEMIMAJOR_AXIS":"6737.401","ECCENTRICITY":"0.00034950","BSTAR":"0.00097517000000","INCLINATION":"69.9993","FILE":"3786577","OBJECT_TYPE":"PAYLOAD","REF_FRAME":"TEME","REV_AT_EPOCH":"130"},{"ELEMENT_SET_NO":"999","CENTER_NAME":"EARTH","MEAN_ANOMALY":"211.6833","RCS_SIZE":"MEDIUM","EPHEMERIS_TYPE":"0","SEMIMAJOR_AXIS":"6737.565","ECCENTRICITY":"0.00034090","CLASSIFICATION_TYPE":"U","TLE_LINE1":"1 55415U 23014AA  23042.91667824  .00102748  00000-0  84969-3 0  9995","NORAD_CAT_ID":"55415","FILE":"3786577","OBJECT_TYPE":"PAYLOAD","BSTAR":"0.00084969000000","INCLINATION":"69.9997","REV_AT_EPOCH":"130","REF_FRAME":"TEME","PERIAPSIS":"357.133","GP_ID":"225186572","DECAY_DATE":null,"SITE":"AFWTR","LAUNCH_DATE":"2023-01-31","MEAN_MOTION_DOT":"0.00102748","TIME_SYSTEM":"UTC","MEAN_MOTION_DDOT":"0.0000000000000","ARG_OF_PERICENTER":"262.5065","RA_OF_ASC_NODE":"58.1327","OBJECT_ID":"2023-014AA","COUNTRY_CODE":"US","TLE_LINE2":"2 55415  69.9997  58.1327 0003409 262.5065 211.6833 15.69814434  1302","APOAPSIS":"361.727","EPOCH":"2023-02-11T22:00:00.999936","PERIOD":"91.731","OBJECT_NAME":"STARLINK-5618","MEAN_MOTION":"15.69814434","MEAN_ELEMENT_THEORY":"SGP4"},{"ECCENTRICITY":"0.00032050","SEMIMAJOR_AXIS":"6737.223","CLASSIFICATION_TYPE":"U","TLE_LINE1":"1 55416U 23014AB  23042.76973723  .00013531  00000-0  11407-3 0  9995","NORAD_CAT_ID":"55416","CENTER_NAME":"EARTH","ELEMENT_SET_NO":"999","EPHEMERIS_TYPE":"0","RCS_SIZE":"LARGE","MEAN_ANOMALY":"88.1944","REF_FRAME":"TEME","REV_AT_EPOCH":"288","OBJECT_TYPE":"PAYLOAD","FILE":"3786577","INCLINATION":"70.0013","BSTAR":"0.00011407000000","MEAN_MOTION_DDOT":"0.0000000000000","TIME_SYSTEM":"UTC","LAUNCH_DATE":"2023-01-31","MEAN_MOTION_DOT":"0.00013531","TLE_LINE2":"2 55416  70.0013  58.5496 0003205 271.8885  88.1944 15.69934033  2885","APOAPSIS":"361.247","OBJECT_ID":"2023-014AB","COUNTRY_CODE":"US","RA_OF_ASC_NODE":"58.5496","ARG_OF_PERICENTER":"271.8885","PERIAPSIS":"356.928","SITE":"AFWTR","GP_ID":"225187824","DECAY_DATE":null,"OBJECT_NAME":"STARLINK-5624","PERIOD":"91.724","MEAN_ELEMENT_THEORY":"SGP4","MEAN_MOTION":"15.69934033","EPOCH":"2023-02-11T18:28:25.296672"},{"LAUNCH_DATE":"2023-01-31","MEAN_MOTION_DOT":"0.00077342","MEAN_MOTION_DDOT":"0.0000000000000","TIME_SYSTEM":"UTC","ARG_OF_PERICENTER":"259.4171","RA_OF_ASC_NODE":"58.1343","TLE_LINE2":"2 55417  69.9994  58.1343 0003201 259.4171 212.6705 15.69908098  1301","APOAPSIS":"361.319","OBJECT_ID":"2023-014AC","COUNTRY_CODE":"US","PERIAPSIS":"357.005","GP_ID":"225187574","DECAY_DATE":null,"SITE":"AFWTR","OBJECT_NAME":"STARLINK-5616","PERIOD":"91.725","MEAN_MOTION":"15.69908098","MEAN_ELEMENT_THEORY":"SGP4","EPOCH":"2023-02-11T22:00:00.999936","SEMIMAJOR_AXIS":"6737.297","ECCENTRICITY":"0.00032010","TLE_LINE1":"1 55417U 23014AC  23042.91667824  .00077342  00000-0  63951-3 0  9996","CLASSIFICATION_TYPE":"U","NORAD_CAT_ID":"55417","CENTER_NAME":"EARTH","ELEMENT_SET_NO":"999","MEAN_ANOMALY":"212.6705","EPHEMERIS_TYPE":"0","RCS_SIZE":null,"REF_FRAME":"TEME","REV_AT_EPOCH":"130","FILE":"3786577","OBJECT_TYPE":"PAYLOAD","BSTAR":"0.00063951000000","INCLINATION":"69.9994"},{"PERIAPSIS":"357.230","SITE":"AFWTR","GP_ID":"225186823","DECAY_DATE":null,"MEAN_MOTION_DDOT":"0.0000000000000","TIME_SYSTEM":"UTC","MEAN_MOTION_DOT":"0.00060748","LAUNCH_DATE":"2023-01-31","APOAPSIS":"360.930","TLE_LINE2":"2 55418  70.0035  58.5503 0002746 270.7340  89.3541 15.69936625  2888","COUNTRY_CODE":"US","OBJECT_ID":"2023-014AD","RA_OF_ASC_NODE":"58.5503","ARG_OF_PERICENTER":"270.7340","EPOCH":"2023-02-11T18:28:43.739616","OBJECT_NAME":"STARLINK-5030","PERIOD":"91.723","MEAN_ELEMENT_THEORY":"SGP4","MEAN_MOTION":"15.69936625","CENTER_NAME":"EARTH","ELEMENT_SET_NO":"999","EPHEMERIS_TYPE":"0","RCS_SIZE":"LARGE","MEAN_ANOMALY":"89.3541","ECCENTRICITY":"0.00027460","SEMIMAJOR_AXIS":"6737.215","NORAD_CAT_ID":"55418","TLE_LINE1":"1 55418U 23014AD  23042.76995069  .00060748  00000-0  50312-3 0  9994","CLASSIFICATION_TYPE":"U","OBJECT_TYPE":"PAYLOAD","FILE":"3786577","INCLINATION":"70.0035","BSTAR":"0.00050312000000","REF_FRAME":"TEME","REV_AT_EPOCH":"288"},{"OBJECT_NAME":"STARLINK-5629","PERIOD":"91.720","MEAN_MOTION":"15.69987398","MEAN_ELEMENT_THEORY":"SGP4","EPOCH":"2023-02-11T18:28:16.394880","LAUNCH_DATE":"2023-01-31","MEAN_MOTION_DOT":"0.00084747","MEAN_MOTION_DDOT":"0.0000000000000","TIME_SYSTEM":"UTC","RA_OF_ASC_NODE":"58.5486","ARG_OF_PERICENTER":"268.1523","TLE_LINE2":"2 55419  70.0008  58.5486 0003328 268.1523  91.9291 15.69987398  2884","APOAPSIS":"361.177","OBJECT_ID":"2023-014AE","COUNTRY_CODE":"US","PERIAPSIS":"356.693","GP_ID":"225187073","DECAY_DATE":null,"SITE":"AFWTR","REF_FRAME":"TEME","REV_AT_EPOCH":"288","FILE":"3786577","OBJECT_TYPE":"PAYLOAD","BSTAR":"0.00069765000000","INCLINATION":"70.0008","SEMIMAJOR_AXIS":"6737.070","ECCENTRICITY":"0.00033280","TLE_LINE1":"1 55419U 23014AE  23042.76963420  .00084747  00000-0  69765-3 0  9998","NORAD_CAT_ID":"55419","CLASSIFICATION_TYPE":"U","CENTER_NAME":"EARTH","ELEMENT_SET_NO":"999","MEAN_ANOMALY":"91.9291","EPHEMERIS_TYPE":"0","RCS_SIZE":"MEDIUM"},{"LAUNCH_DATE":"2023-01-31","MEAN_MOTION_DOT":"0.00105243","TIME_SYSTEM":"UTC","MEAN_MOTION_DDOT":"0.0000000000000","ARG_OF_PERICENTER":"259.4983","RA_OF_ASC_NODE":"58.5496","OBJECT_ID":"2023-014AF","COUNTRY_CODE":"US","TLE_LINE2":"2 55420  70.0065  58.5496 0003470 259.4983 100.5822 15.70541501  2882","APOAPSIS":"359.688","PERIAPSIS":"355.013","GP_ID":"225187324","DECAY_DATE":null,"SITE":"AFWTR","PERIOD":"91.688","OBJECT_NAME":"STARLINK-5604","MEAN_MOTION":"15.70541501","MEAN_ELEMENT_THEORY":"SGP4","EPOCH":"2023-02-11T18:28:10.036704","SEMIMAJOR_AXIS":"6735.485","ECCENTRICITY":"0.00034700","CLASSIFICATION_TYPE":"U","TLE_LINE1":"1 55420U 23014AF  23042.76956061  .00105243  00000-0  84422-3 0  9995","NORAD_CAT_ID":"55420","ELEMENT_SET_NO":"999","CENTER_NAME":"EARTH","MEAN_ANOMALY":"100.5822","RCS_SIZE":"MEDIUM","EPHEMERIS_TYPE":"0","REV_AT_EPOCH":"288","REF_FRAME":"TEME","FILE":"3786577","OBJECT_TYPE":"PAYLOAD","BSTAR":"0.00084422000000","INCLINATION":"70.0065"},{"OBJECT_ID":"2023-014AG","COUNTRY_CODE":"US","APOAPSIS":"361.622","TLE_LINE2":"2 55421  69.9992  58.1368 0003549 263.7735 205.9350 15.69883919  1305","RA_OF_ASC_NODE":"58.1368","ARG_OF_PERICENTER":"263.7735","TIME_SYSTEM":"UTC","MEAN_MOTION_DDOT":"0.0000000000000","LAUNCH_DATE":"2023-01-31","MEAN_MOTION_DOT":"0.00089081","SITE":"AFWTR","GP_ID":"225188075","DECAY_DATE":null,"PERIAPSIS":"356.840","MEAN_ELEMENT_THEORY":"SGP4","MEAN_MOTION":"15.69883919","PERIOD":"91.727","OBJECT_NAME":"STARLINK-5598","EPOCH":"2023-02-11T22:00:00.999936","TLE_LINE1":"1 55421U 23014AG  23042.91667824  .00089081  00000-0  73597-3 0  9991","NORAD_CAT_ID":"55421","CLASSIFICATION_TYPE":"U","ECCENTRICITY":"0.00035490","SEMIMAJOR_AXIS":"6737.366","RCS_SIZE":null,"EPHEMERIS_TYPE":"0","MEAN_ANOMALY":"205.9350","ELEMENT_SET_NO":"999","CENTER_NAME":"EARTH","REV_AT_EPOCH":"130","REF_FRAME":"TEME","INCLINATION":"69.9992","BSTAR":"0.00073597000000","OBJECT_TYPE":"PAYLOAD","FILE":"3786577"},{"MEAN_ELEMENT_THEORY":"SGP4","MEAN_MOTION":"15.69930492","OBJECT_NAME":"STARLINK-5006","PERIOD":"91.724","EPOCH":"2023-02-11T18:29:29.436576","APOAPSIS":"360.082","TLE_LINE2":"2 55422  70.0015  58.5515 0001461 279.1711  80.9319 15.69930492  2888","OBJECT_ID":"2023-014AH","COUNTRY_CODE":"US","ARG_OF_PERICENTER":"279.1711","RA_OF_ASC_NODE":"58.5515","TIME_SYSTEM":"UTC","MEAN_MOTION_DDOT":"0.0000000000000","MEAN_MOTION_DOT":"0.00079250","LAUNCH_DATE":"2023-01-31","SITE":"AFWTR","GP_ID":"225186323","DECAY_DATE":null,"PERIAPSIS":"358.114","REF_FRAME":"TEME","REV_AT_EPOCH":"288","INCLINATION":"70.0015","BSTAR":"0.00065461000000","OBJECT_TYPE":"PAYLOAD","FILE":"3786577","CLASSIFICATION_TYPE":"U","TLE_LINE1":"1 55422U 23014AH  23042.77047959  .00079250  00000-0  65461-3 0  9995","NORAD_CAT_ID":"55422","ECCENTRICITY":"0.00014610","SEMIMAJOR_AXIS":"6737.233","EPHEMERIS_TYPE":"0","RCS_SIZE":"MEDIUM","MEAN_ANOMALY":"80.9319","CENTER_NAME":"EARTH","ELEMENT_SET_NO":"999"},{"MEAN_MOTION_DDOT":"0.0000000000000","TIME_SYSTEM":"UTC","MEAN_MOTION_DOT":"0.00052325","LAUNCH_DATE":"2023-01-31","APOAPSIS":"361.169","TLE_LINE2":"2 55423  70.0029  58.5515 0003072 261.1872  98.8976 15.69930016  2882","COUNTRY_CODE":"US","OBJECT_ID":"2023-014AJ","RA_OF_ASC_NODE":"58.5515","ARG_OF_PERICENTER":"261.1872","PERIAPSIS":"357.030","SITE":"AFWTR","DECAY_DATE":null,"GP_ID":"225186573","OBJECT_NAME":"STARLINK-5068","PERIOD":"91.724","MEAN_ELEMENT_THEORY":"SGP4","MEAN_MOTION":"15.69930016","EPOCH":"2023-02-11T18:28:52.795200","ECCENTRICITY":"0.00030720","SEMIMAJOR_AXIS":"6737.234","TLE_LINE1":"1 55423U 23014AJ  23042.77005550  .00052325  00000-0  43414-3 0  9995","NORAD_CAT_ID":"55423","CLASSIFICATION_TYPE":"U","CENTER_NAME":"EARTH","ELEMENT_SET_NO":"999","EPHEMERIS_TYPE":"0","RCS_SIZE":"LARGE","MEAN_ANOMALY":"98.8976","REF_FRAME":"TEME","REV_AT_EPOCH":"288","OBJECT_TYPE":"PAYLOAD","FILE":"3786577","INCLINATION":"70.0029","BSTAR":"0.00043414000000"}];
